{"type": "FeatureCollection", "features": [ {"type": "Feature", "properties": {"norad_id": 44804, "name": "CARTOSAT-3", "group": "resource", "lat": -25.42803129768333, "lon": 55.6997084228681, "alt_km": 513.9934322210411, "timestamp": "2025-12-18T14:52:07.688209+00:00", "meta": {"OBJECT_NAME": "CARTOSAT-3", "OBJECT_ID": "2019-081A", "EPOCH": "2025-12-18T07:04:39.080064", "MEAN_MOTION": 15.1919988, "ECCENTRICITY": 0.00140057, "INCLINATION": 97.4583, "RA_OF_ASC_NODE": 51.8083, "ARG_OF_PERICENTER": 65.8569, "MEAN_ANOMALY": 294.4128, "EPHEMERIS_TYPE": 0, "CLASSIFICATION_TYPE": "U", "NORAD_CAT_ID": 44804, "ELEMENT_SET_NO": 999, "REV_AT_EPOCH": 33600, "BSTAR": 0.0001971047, "MEAN_MOTION_DOT": 4.089e-05, "MEAN_MOTION_DDOT": 0}, "tle": {"line1": "1 44804U 19081A   25352.29489676  .00004089  00000+0  19710-3 0  9998", "line2": "2 44804  97.4583  51.8083 0014005  65.8569 294.4128 15.19199880336005"}}, "geometry": {"type": "Point", "coordinates": [55.6997084228681, -25.42803129768333]}}, {"type": "Feature", "properties": {"norad_id": 44819, "name": "GAOFEN-12 01", "group": "resource", "lat": -15.634738997384503, "lon": 0.9482910313489442, "alt_km": 632.9482102346383, "timestamp": "2025-12-18T14:52:07.688220+00:00", "meta": {"OBJECT_NAME": "GAOFEN-12 01", "OBJECT_ID": "2019-082A", "EPOCH": "2025-12-18T06:49:49.865088", "MEAN_MOTION": 14.80663851, "ECCENTRICITY": 0.00016638, "INCLINATION": 97.8124, "RA_OF_ASC_NODE": 358.4201, "ARG_OF_PERICENTER": 204.3782, "MEAN_ANOMALY": 155.7352, "EPHEMERIS_TYPE": 0, "CLASSIFICATION_TYPE": "U", "NORAD_CAT_ID": 44819, "ELEMENT_SET_NO": 999, "REV_AT_EPOCH": 32732, "BSTAR": 6.0591445e-05, "MEAN_MOTION_DOT": 4.15e-06, "MEAN_MOTION_DDOT": 0}, "tle": {"line1": "1 44819U 19082A   25352.28460492  .00000415  00000+0  60591-4 0  9992", "line2": "2 44819  97.8124 358.4201 0001663 204.3782 155.7352 14.80663851327321"}}, "geometry": {"type": "Point", "coordinates": [0.9482910313489442, -15.634738997384503]}}, {"type": "Feature", "properties": {"norad_id": 44873, "name": "CSG-1", "group": "resource", "lat": 52.32813528192492, "lon": 4.188936770145317, "alt_km": 616.9028236160157, "timestamp": "2025-12-18T14:52:07.688229+00:00", "meta": {"OBJECT_NAME": "CSG-1", "OBJECT_ID": "2019-092A", "EPOCH": "2025-12-18T07:49:02.399808", "MEAN_MOTION": 14.82147891, "ECCENTRICITY": 0.00014941, "INCLINATION": 97.8803, "RA_OF_ASC_NODE": 173.5657, "ARG_OF_PERICENTER": 86.4329, "MEAN_ANOMALY": 273.7055, "EPHEMERIS_TYPE": 0, "CLASSIFICATION_TYPE": "U", "NORAD_CAT_ID": 44873, "ELEMENT_SET_NO": 999, "REV_AT_EPOCH": 32468, "BSTAR": 6.4827811e-05, "MEAN_MOTION_DOT": 4.64e-06, "MEAN_MOTION_DDOT": 0}, "tle": {"line1": "1 44873U 19092A   25352.32572222  .00000464  00000+0  64828-4 0  9994", "line2": "2 44873  97.8803 173.5657 0001494  86.4329 273.7055 14.82147891324684"}}, "geometry": {"type": "Point", "coordinates": [4.188936770145317, 52.32813528192492]}}, {"type": "Feature", "properties": {"norad_id": 46277, "name": "NEMO-HD", "group": "resource", "lat": 74.4442159700486, "lon": 24.547866240363888, "alt_km": 436.7750744545492, "timestamp": "2025-12-18T14:52:07.688240+00:00", "meta": {"OBJECT_NAME": "NEMO-HD", "OBJECT_ID": "2020-061F", "EPOCH": "2025-12-18T06:44:39.577632", "MEAN_MOTION": 15.40440857, "ECCENTRICITY": 0.00015258, "INCLINATION": 97.221, "RA_OF_ASC_NODE": 51.309, "ARG_OF_PERICENTER": 51.9186, "MEAN_ANOMALY": 308.2198, "EPHEMERIS_TYPE": 0, "CLASSIFICATION_TYPE": "U", "NORAD_CAT_ID": 46277, "ELEMENT_SET_NO": 999, "REV_AT_EPOCH": 29409, "BSTAR": 0.0002188661, "MEAN_MOTION_DOT": 8.778e-05, "MEAN_MOTION_DDOT": 0}, "tle": {"line1": "1 46277U 20061F   25352.28101363  .00008778  00000+0  21887-3 0  9994", "line2": "2 46277  97.2210  51.3090 0001525  51.9186 308.2198 15.40440857294093"}}, "geometry": {"type": "Point", "coordinates": [24.547866240363888, 74.4442159700486]}}, {"type": "Feature", "properties": {"norad_id": 46984, "name": "SENTINEL-6A", "group": "resource", "lat": -27.438300837474134, "lon": -16.556385014226528, "alt_km": 1339.4045140081935, "timestamp": "2025-12-18T14:52:07.688250+00:00", "meta": {"OBJECT_NAME": "SENTINEL-6A", "OBJECT_ID": "2020-086A", "EPOCH": "2025-12-18T04:24:19.097568", "MEAN_MOTION": 12.80930811, "ECCENTRICITY": 0.0007711, "INCLINATION": 66.0391, "RA_OF_ASC_NODE": 151.0009, "ARG_OF_PERICENTER": 269.2836, "MEAN_ANOMALY": 90.7296, "EPHEMERIS_TYPE": 0, "CLASSIFICATION_TYPE": "U", "NORAD_CAT_ID": 46984, "ELEMENT_SET_NO": 999, "REV_AT_EPOCH": 23714, "BSTAR": 2.9219684e-05, "MEAN_MOTION_DOT": -5.4e-07, "MEAN_MOTION_DDOT": 0}, "tle": {"line1": "1 46984U 20086A   25352.18355437 -.00000054  00000+0  29220-4 0  9998", "line2": "2 46984  66.0391 151.0009 0007711 269.2836  90.7296 12.80930811237149"}}, "geometry": {"type": "Point", "coordinates": [-16.556385014226528, -27.438300837474134]}}, {"type": "Feature", "properties": {"norad_id": 48079, "name": "GAOFEN-12 02", "group": "resource", "lat": -4.044025899467331, "lon": -12.833758079352995, "alt_km": 630.8324140751429, "timestamp": "2025-12-18T14:52:07.688260+00:00", "meta": {"OBJECT_NAME": "GAOFEN-12 02", "OBJECT_ID": "2021-026A", "EPOCH": "2025-12-18T06:46:40.419264", "MEAN_MOTION": 14.80681856, "ECCENTRICITY": 0.00036022, "INCLINATION": 97.9853, "RA_OF_ASC_NODE": 346.2621, "ARG_OF_PERICENTER": 90.077, "MEAN_ANOMALY": 270.0855, "EPHEMERIS_TYPE": 0, "CLASSIFICATION_TYPE": "U", "NORAD_CAT_ID": 48079, "ELEMENT_SET_NO": 999, "REV_AT_EPOCH": 25499, "BSTAR": 6.1591722e-05, "MEAN_MOTION_DOT": 4.21e-06, "MEAN_MOTION_DDOT": 0}, "tle": {"line1": "1 48079U 21026A   25352.28241226  .00000421  00000+0  61592-4 0  9996", "line2": "2 48079  97.9853 346.2621 0003602  90.0770 270.0855 14.80681856254992"}}, "geometry": {"type": "Point", "coordinates": [-12.833758079352995, -4.044025899467331]}}, {"type": "Feature", "properties": {"norad_id": 48268, "name": "PLEIADES NEO 3", "group": "resource", "lat": 80.092073750476, "lon": 12.37532123536496, "alt_km": 615.7429053624428, "timestamp": "2025-12-18T14:52:07.688270+00:00", "meta": {"OBJECT_NAME": "PLEIADES NEO 3", "OBJECT_ID": "2021-034A", "EPOCH": "2025-12-18T11:14:58.570944", "MEAN_MOTION": 14.81671671, "ECCENTRICITY": 0.0001334, "INCLINATION": 97.8948, "RA_OF_ASC_NODE": 64.8276, "ARG_OF_PERICENTER": 96.0456, "MEAN_ANOMALY": 264.0909, "EPHEMERIS_TYPE": 0, "CLASSIFICATION_TYPE": "U", "NORAD_CAT_ID": 48268, "ELEMENT_SET_NO": 999, "REV_AT_EPOCH": 25089, "BSTAR": 0.00012826, "MEAN_MOTION_DOT": 9.57e-06, "MEAN_MOTION_DDOT": 0}, "tle": {"line1": "1 48268U 21034A   25352.46873346  .00000957  00000+0  12826-3 0  9998", "line2": "2 48268  97.8948  64.8276 0001334  96.0456 264.0909 14.81671671250895"}}, "geometry": {"type": "Point", "coordinates": [12.37532123536496, 80.092073750476]}}, {"type": "Feature", "properties": {"norad_id": 49070, "name": "PLEIADES NEO 4", "group": "resource", "lat": -80.14528880495996, "lon": -168.04543080466647, "alt_km": 632.2494801609791, "timestamp": "2025-12-18T14:52:07.688280+00:00", "meta": {"OBJECT_NAME": "PLEIADES NEO 4", "OBJECT_ID": "2021-073E", "EPOCH": "2025-12-18T07:11:50.609184", "MEAN_MOTION": 14.81673871, "ECCENTRICITY": 0.00012302, "INCLINATION": 97.895, "RA_OF_ASC_NODE": 64.6572, "ARG_OF_PERICENTER": 92.7216, "MEAN_ANOMALY": 267.4137, "EPHEMERIS_TYPE": 0, "CLASSIFICATION_TYPE": "U", "NORAD_CAT_ID": 49070, "ELEMENT_SET_NO": 999, "REV_AT_EPOCH": 23458, "BSTAR": 3.1473577e-05, "MEAN_MOTION_DOT": 1.96e-06, "MEAN_MOTION_DDOT": 0}, "tle": {"line1": "1 49070U 21073E   25352.29989131  .00000196  00000+0  31474-4 0  9990", "line2": "2 49070  97.8950  64.6572 0001230  92.7216 267.4137 14.81673871234581"}}, "geometry": {"type": "Point", "coordinates": [-168.04543080466647, -80.14528880495996]}}, {"type": "Feature", "properties": {"norad_id": 49260, "name": "LANDSAT 9", "group": "resource", "lat": 57.46656158101559, "lon": -106.27536313282204, "alt_km": 696.3434772971095, "timestamp": "2025-12-18T14:52:07.688290+00:00", "meta": {"OBJECT_NAME": "LANDSAT 9", "OBJECT_ID": "2021-088A", "EPOCH": "2025-12-18T04:25:28.544160", "MEAN_MOTION": 14.57103516, "ECCENTRICITY": 0.00011117, "INCLINATION": 98.2089, "RA_OF_ASC_NODE": 60.2164, "ARG_OF_PERICENTER": 90.4341, "MEAN_ANOMALY": 269.6985, "EPHEMERIS_TYPE": 0, "CLASSIFICATION_TYPE": "U", "NORAD_CAT_ID": 49260, "ELEMENT_SET_NO": 999, "REV_AT_EPOCH": 22464, "BSTAR": 8.8610258e-05, "MEAN_MOTION_DOT": 3.54e-06, "MEAN_MOTION_DDOT": 0}, "tle": {"line1": "1 49260U 21088A   25352.18435815  .00000354  00000+0  88610-4 0  9990", "line2": "2 49260  98.2089  60.2164 0001111  90.4341 269.6985 14.57103516224649"}}, "geometry": {"type": "Point", "coordinates": [-106.27536313282204, 57.46656158101559]}}, {"type": "Feature", "properties": {"norad_id": 51444, "name": "CSG-2", "group": "resource", "lat": -52.48458911130265, "lon": -175.7539554959816, "alt_km": 630.2763294290426, "timestamp": "2025-12-18T14:52:07.688300+00:00", "meta": {"OBJECT_NAME": "CSG-2", "OBJECT_ID": "2022-008A", "EPOCH": "2025-12-18T07:00:25.845984", "MEAN_MOTION": 14.82150537, "ECCENTRICITY": 0.00014836, "INCLINATION": 97.88, "RA_OF_ASC_NODE": 173.5308, "ARG_OF_PERICENTER": 84.0063, "MEAN_ANOMALY": 276.1319, "EPHEMERIS_TYPE": 0, "CLASSIFICATION_TYPE": "U", "NORAD_CAT_ID": 51444, "ELEMENT_SET_NO": 999, "REV_AT_EPOCH": 20979, "BSTAR": 7.9138075e-05, "MEAN_MOTION_DOT": 5.78e-06, "MEAN_MOTION_DDOT": 0}, "tle": {"line1": "1 51444U 22008A   25352.29196581  .00000578  00000+0  79138-4 0  9999", "line2": "2 51444  97.8800 173.5308 0001483  84.0063 276.1319 14.82150537209798"}}, "geometry": {"type": "Point", "coordinates": [-175.7539554959816, -52.48458911130265]}}]}